SL-16 R/B               
1 25400U 98043G   26004.88250540  .00000105  00000+0  63031-4 0  9991
2 25400  98.8156 317.8339 0009506 193.8996 166.1923 14.26032176429891
SL-16 R/B               
1 25407U 98045B   26004.93257696 -.00000143  00000+0 -48047-4 0  9999
2 25407  71.0127 315.6523 0005485 137.1513 223.0038 14.16181535418079
ISS (ZARYA)             
1 25544U 98067A   26004.75849265  .00010439  00000+0  19662-3 0  9991
2 25544  51.6325  28.5008 0007565 340.7123  19.3578 15.49095636546422
CZ-4B R/B               
1 25732U 99025C   26004.75886096  .00000135  00000+0  85766-4 0  9999
2 25732  98.6735  50.5202 0037352 167.3760 307.8047 14.18250221379108
OKEAN-O                 
1 25860U 99039A   26004.90888316  .00001082  00000+0  14920-3 0  9995
2 25860  97.9567  65.4068 0001401 113.2585 246.8774 14.80209235424952
SL-16 R/B               
1 25861U 99039B   26004.88176142  .00000932  00000+0  12513-3 0  9999
2 25861  98.0091  64.0308 0016115 103.5230 256.7779 14.81627109427410
DELTA 2 R/B             
1 25876U 99041E   26004.79656409  .00002582  00000+0  45323-3 0  9995
2 25876  51.7589 196.4005 0504074 159.7295 202.4458 14.11492404354005
HELIOS 1B               
1 25977U 99064A   26004.67711529  .00003078  00000+0  34675-3 0  9993
2 25977  98.1752 265.0238 0000417  55.9675 304.1580 14.87399020675742
TERRA                   
1 25994U 99068A   26004.95081792  .00000726  00000+0  15733-3 0  9990
2 25994  97.9714  60.7796 0002987  47.1330   4.5247 14.60933483385770
SL-16 R/B               
1 26070U 00006B   26004.93141109  .00000130  00000+0  90503-4 0  9995
2 26070  71.0017 231.8956 0018906 277.4983  82.3992 14.15815340339539
TITAN 4B R/B            
1 26474U 00047B   26004.94399393  .00003945  00000+0  25344-3 0  9996
2 26474  67.9877 219.6782 0037393 116.1409 244.3594 15.08979206383294
ENVISAT                 
1 27386U 02009A   25365.95019499  .00000264  00000+0  99422-4 0  9995
2 27386  98.3626 316.2065 0001107  88.1807 295.1197 14.39007536249430
